$$SOE
2460147.500000000, A.D. 2023-Jul-22 00:00:00.0000, 2.980773406158241E+08, -3.873513329548340E+08, -3.924729535855311E+07,
2460154.500000000, A.D. 2023-Jul-29 00:00:00.0000, 3.050620519561761E+08, -3.816754953217736E+08, -3.804582948580511E+07,
2460161.500000000, A.D. 2023-Aug-05 00:00:00.0000, 3.119209120508767E+08, -3.758422266553534E+08, -3.682866987075557E+07,
2460168.500000000, A.D. 2023-Aug-12 00:00:00.0000, 3.186508657793635E+08, -3.698536641709021E+08, -3.559629200174256E+07,
2460175.500000000, A.D. 2023-Aug-19 00:00:00.0000, 3.252488739004110E+08, -3.637119858009822E+08, -3.434917632808016E+07,
2460182.500000000, A.D. 2023-Aug-26 00:00:00.0000, 3.317119126820774E+08, -3.574194109689735E+08, -3.308780839715213E+07,
2460189.500000000, A.D. 2023-Sep-02 00:00:00.0000, 3.380369735490635E+08, -3.509782014796223E+08, -3.181267900057895E+07,
2460196.500000000, A.D. 2023-Sep-09 00:00:00.0000, 3.442210627871454E+08, -3.443906625681708E+08, -3.052428433635794E+07,
2460203.500000000, A.D. 2023-Sep-16 00:00:00.0000, 3.502612014757999E+08, -3.376591441669612E+08, -2.922312620726781E+07,
2460210.500000000, A.D. 2023-Sep-23 00:00:00.0000, 3.561544260680761E+08, -3.307860421037961E+08, -2.790971227026613E+07,
2460217.500000000, A.D. 2023-Sep-30 00:00:00.0000, 3.618977892808130E+08, -3.237737980429528E+08, -2.658455620823938E+07,
2460224.500000000, A.D. 2023-Oct-07 00:00:00.0000, 3.674883589431658E+08, -3.166248987133932E+08, -2.524817765225516E+07,
2460231.500000000, A.D. 2023-Oct-14 00:00:00.0000, 3.729232158437845E+08, -3.093418777373387E+08, -2.390110222005640E+07,
2460238.500000000, A.D. 2023-Oct-21 00:00:00.0000, 3.781994538064148E+08, -3.019273184551628E+08, -2.254386183555408E+07,
2460245.500000000, A.D. 2023-Oct-28 00:00:00.0000, 3.833141805721592E+08, -2.943838554858648E+08, -2.117699501356345E+07,
2460252.500000000, A.D. 2023-Nov-04 00:00:00.0000, 3.882645182411580E+08, -2.867141757934981E+08, -1.980104705765507E+07,
2460259.500000000, A.D. 2023-Nov-11 00:00:00.0000, 3.930476034539683E+08, -2.789210198593365E+08, -1.841657023598428E+07,
2460266.500000000, A.D. 2023-Nov-18 00:00:00.0000, 3.976605875349793E+08, -2.710071830238883E+08, -1.702412396004267E+07,
2460273.500000000, A.D. 2023-Nov-25 00:00:00.0000, 4.021006366737337E+08, -2.629755169760379E+08, -1.562427497073892E+07,
2460280.500000000, A.D. 2023-Dec-02 00:00:00.0000, 4.063649321754229E+08, -2.548289314003952E+08, -1.421759753491823E+07,
2460287.500000000, A.D. 2023-Dec-09 00:00:00.0000, 4.104506708612641E+08, -2.465703958414645E+08, -1.280467366395339E+07,
2460294.500000000, A.D. 2023-Dec-16 00:00:00.0000, 4.143550659091809E+08, -2.382029417711162E+08, -1.138609337951449E+07,
2460301.500000000, A.D. 2023-Dec-23 00:00:00.0000, 4.180753484871715E+08, -2.297296641705769E+08, -9.962455002085641E+06,
2460308.500000000, A.D. 2023-Dec-30 00:00:00.0000, 4.216087688445298E+08, -2.211537215773873E+08, -8.534365253299743E+06,
2460315.500000000, A.D. 2024-Jan-06 00:00:00.0000, 4.249525950931349E+08, -2.124783369587395E+08, -7.102439202245250E+06,
2460322.500000000, A.D. 2024-Jan-13 00:00:00.0000, 4.281041128545221E+08, -2.037068012173197E+08, -5.667300494359627E+06,
2460329.500000000, A.D. 2024-Jan-20 00:00:00.0000, 4.310606270001119E+08, -1.948424762430492E+08, -4.229581722969815E+06,
2460336.500000000, A.D. 2024-Jan-27 00:00:00.0000, 4.338194634611282E+08, -1.858887968570292E+08, -2.789924703906432E+06,
2460343.500000000, A.D. 2024-Feb-03 00:00:00.0000, 4.363779706852745E+08, -1.768492725950660E+08, -1.348980691168331E+06,
2460350.500000000, A.D. 2024-Feb-10 00:00:00.0000, 4.387335210229651E+08, -1.677274896203611E+08, 9.258941744323075E+04,
2460357.500000000, A.D. 2024-Feb-17 00:00:00.0000, 4.408835121874724E+08, -1.585271127555675E+08, 1.534114873050228E+06,
2460364.500000000, A.D. 2024-Feb-24 00:00:00.0000, 4.428253688309465E+08, -1.492518876173012E+08, 2.974914865197323E+06,
2460371.500000000, A.D. 2024-Mar-02 00:00:00.0000, 4.445565442719447E+08, -1.399056428833637E+08, 4.414298303377815E+06,
2460378.500000000, A.D. 2024-Mar-09 00:00:00.0000, 4.460745225194237E+08, -1.304922927530351E+08, 5.851563573364876E+06,
2460385.500000000, A.D. 2024-Mar-16 00:00:00.0000, 4.473768209943302E+08, -1.210158393997858E+08, 7.285998248895891E+06,
2460392.500000000, A.D. 2024-Mar-23 00:00:00.0000, 4.484609938522051E+08, -1.114803743028690E+08, 8.716878859757096E+06,
2460399.500000000, A.D. 2024-Mar-30 00:00:00.0000, 4.493246336748872E+08, -1.018900784810469E+08, 1.014347092091891E+07,
2460406.500000000, A.D. 2024-Apr-06 00:00:00.0000, 4.499653717952298E+08, -9.224922499397206E+07, 1.156502892520627E+07,
2460413.500000000, A.D. 2024-Apr-13 00:00:00.0000, 4.503808808106109E+08, -8.256218287082614E+07, 1.298079604301688E+07,
2460420.500000000, A.D. 2024-Apr-20 00:00:00.0000, 4.505688783380308E+08, -7.283341978324652E+07, 1.439000383611173E+07,
2460427.500000000, A.D. 2024-Apr-27 00:00:00.0000, 4.505271305001733E+08, -6.306750401651926E+07, 1.579187207985093E+07,
2460434.500000000, A.D. 2024-May-04 00:00:00.0000, 4.502534552380181E+08, -5.326910643393097E+07, 1.718560862961853E+07,
2460441.500000000, A.D. 2024-May-11 00:00:00.0000, 4.497457256976003E+08, -4.344300252695216E+07, 1.857040930288304E+07,
2460448.500000000, A.D. 2024-May-18 00:00:00.0000, 4.490018737833033E+08, -3.359407452061292E+07, 1.994545777314338E+07,
2460455.500000000, A.D. 2024-May-25 00:00:00.0000, 4.480198939129041E+08, -2.372731353237168E+07, 2.130992547517364E+07,
2460462.500000000, A.D. 2024-Jun-01 00:00:00.0000, 4.467978470440201E+08, -1.384782183287511E+07, 2.266297151375319E+07,
2460469.500000000, A.D. 2024-Jun-08 00:00:00.0000, 4.453338652267693E+08, -3.960815221868536E+06, 2.400374255371170E+07,
2460476.500000000, A.D. 2024-Jun-15 00:00:00.0000, 4.436261570887251E+08, 5.928375037281066E+06, 2.533137270134268E+07,
2460483.500000000, A.D. 2024-Jun-22 00:00:00.0000, 4.416730132538456E+08, 1.581430191413753E+07, 2.664498356790723E+07,
2460490.500000000, A.D. 2024-Jun-29 00:00:00.0000, 4.394728095840639E+08, 2.569140213322799E+07, 2.794368456420388E+07,
2460497.500000000, A.D. 2024-Jul-06 00:00:00.0000, 4.370240108976961E+08, 3.555399306432933E+07, 2.922657298456225E+07,
2460504.500000000, A.D. 2024-Jul-13 00:00:00.0000, 4.343251771195671E+08, 4.539626982123105E+07, 3.049273393480114E+07,
2460511.500000000, A.D. 2024-Jul-20 00:00:00.0000, 4.313749698834781E+08, 5.521230373644438E+07, 3.174124038308951E+07,
2460518.500000000, A.D. 2024-Jul-27 00:00:00.0000, 4.281721589381547E+08, 6.499604127220920E+07, 3.297115331869052E+07,
2460525.500000000, A.D. 2024-Aug-03 00:00:00.0000, 4.247156286361687E+08, 7.474130301379263E+07, 3.418152196621452E+07,
2460532.500000000, A.D. 2024-Aug-10 00:00:00.0000, 4.210043846772739E+08, 8.444178276312363E+07, 3.537138404319130E+07,
2460539.500000000, A.D. 2024-Aug-17 00:00:00.0000, 4.170375611582539E+08, 9.409104677872142E+07, 3.653976606191644E+07,
2460546.500000000, A.D. 2024-Aug-24 00:00:00.0000, 4.128144279610385E+08, 1.036825331656663E+08, 3.768568367490602E+07,
2460553.500000000, A.D. 2024-Aug-31 00:00:00.0000, 4.083343985978224E+08, 1.132095513816852E+08, 3.880814205225945E+07,
2460560.500000000, A.D. 2024-Sep-07 00:00:00.0000, 4.035970388803201E+08, 1.226652820141521E+08, 3.990613627169437E+07,
2460567.500000000, A.D. 2024-Sep-14 00:00:00.0000, 3.986020764963816E+08, 1.320427778534543E+08, 4.097865179850516E+07,
2460574.500000000, A.D. 2024-Sep-21 00:00:00.0000, 3.933494094608407E+08, 1.413349667089990E+08, 4.202466527946587E+07,
2460581.500000000, A.D. 2024-Sep-28 00:00:00.0000, 3.878391129518111E+08, 1.505346527760777E+08, 4.304314543706471E+07,
2460588.500000000, A.D. 2024-Oct-05 00:00:00.0000, 3.820714481978312E+08, 1.596345165886883E+08, 4.403305373238333E+07,
2460595.500000000, A.D. 2024-Oct-12 00:00:00.0000, 3.760468730437434E+08, 1.686271165734285E+08, 4.499334507729940E+07,
2460602.500000000, A.D. 2024-Oct-19 00:00:00.0000, 3.697660524302842E+08, 1.775048919718798E+08, 4.592296873893457E+07,
2460609.500000000, A.D. 2024-Oct-26 00:00:00.0000, 3.632298687385761E+08, 1.862601663700222E+08, 4.682086937841055E+07,
2460616.500000000, A.D. 2024-Nov-02 00:00:00.0000, 3.564394322368773E+08, 1.948851517278436E+08, 4.768598819270689E+07,
2460623.500000000, A.D. 2024-Nov-09 00:00:00.0000, 3.493960917025810E+08, 2.033719529732317E+08, 4.851726415704203E+07,
2460630.500000000, A.D. 2024-Nov-16 00:00:00.0000, 3.421014452183678E+08, 2.117125732053727E+08, 4.931363537023814E+07,
2460637.500000000, A.D. 2024-Nov-23 00:00:00.0000, 3.345573511591009E+08, 2.198989195037231E+08, 5.007404049978492E+07,
2460644.500000000, A.D. 2024-Nov-30 00:00:00.0000, 3.267659395440677E+08, 2.279228093460523E+08, 5.079742030932477E+07,
2460651.500000000, A.D. 2024-Dec-07 00:00:00.0000, 3.187296241364058E+08, 2.357759781006126E+08, 5.148271926948471E+07,
2460658.500000000, A.D. 2024-Dec-14 00:00:00.0000, 3.104511145557246E+08, 2.434500888569616E+08, 5.212888741886269E+07,
2460665.500000000, A.D. 2024-Dec-21 00:00:00.0000, 3.019334260307934E+08, 2.509367433955447E+08, 5.273488258947954E+07,
2460672.500000000, A.D. 2024-Dec-28 00:00:00.0000, 2.931798887089818E+08, 2.582274913705541E+08, 5.329967257687157E+07,
2460679.500000000, A.D. 2025-Jan-04 00:00:00.0000, 2.841941590567462E+08, 2.653138401166332E+08, 5.382223721186377E+07,
2460686.500000000, A.D. 2025-Jan-11 00:00:00.0000, 2.749802314538472E+08, 2.721872667709949E+08, 5.430157063598515E+07,
2460693.500000000, A.D. 2025-Jan-18 00:00:00.0000, 2.655424489825278E+08, 2.788392318253503E+08, 5.473668378948037E+07,
2460700.500000000, A.D. 2025-Jan-25 00:00:00.0000, 2.558855135707651E+08, 2.852611936643272E+08, 5.512660705128637E+07,
2460707.500000000, A.D. 2025-Feb-01 00:00:00.0000, 2.460144955912985E+08, 2.914446240856355E+08, 5.547039301111016E+07,
2460714.500000000, A.D. 2025-Feb-08 00:00:00.0000, 2.359348428816207E+08, 2.973810248387914E+08, 5.576711936824243E+07,
$$EOE